[{"OBJECT_NAME":"STARLINK-36939","OBJECT_ID":"2026-040V","EPOCH":"2026-03-14T22:00:01.999584","MEAN_MOTION":15.93962432,"ECCENTRICITY":0.00011685,"INCLINATION":97.2772,"RA_OF_ASC_NODE":22.5719,"ARG_OF_PERICENTER":91.8357,"MEAN_ANOMALY":300.9335,"EPHEMERIS_TYPE":0,"CLASSIFICATION_TYPE":"U","NORAD_CAT_ID":68034,"ELEMENT_SET_NO":999,"REV_AT_EPOCH":326,"BSTAR":-0.0046023919,"MEAN_MOTION_DOT":-0.01664808,"MEAN_MOTION_DDOT":0.00078957275},{"OBJECT_NAME":"STARLINK-36943","OBJECT_ID":"2026-040W","EPOCH":"2026-03-14T22:00:01.999584","MEAN_MOTION":15.93812726,"ECCENTRICITY":0.00010671,"INCLINATION":97.279,"RA_OF_ASC_NODE":22.5819,"ARG_OF_PERICENTER":87.4403,"MEAN_ANOMALY":326.7968,"EPHEMERIS_TYPE":0,"CLASSIFICATION_TYPE":"U","NORAD_CAT_ID":68035,"ELEMENT_SET_NO":999,"REV_AT_EPOCH":331,"BSTAR":-0.0047688102,"MEAN_MOTION_DOT":-0.01710944,"MEAN_MOTION_DDOT":0.00082948149},{"OBJECT_NAME":"STARLINK-36906","OBJECT_ID":"2026-040X","EPOCH":"2026-03-14T22:00:01.999584","MEAN_MOTION":15.93900154,"ECCENTRICITY":0.00011911,"INCLINATION":97.2761,"RA_OF_ASC_NODE":22.5698,"ARG_OF_PERICENTER":91.4325,"MEAN_ANOMALY":297.4433,"EPHEMERIS_TYPE":0,"CLASSIFICATION_TYPE":"U","NORAD_CAT_ID":68036,"ELEMENT_SET_NO":999,"REV_AT_EPOCH":326,"BSTAR":-0.0046002292,"MEAN_MOTION_DOT":-0.01658672,"MEAN_MOTION_DDOT":0.00078366613},{"OBJECT_NAME":"STARLINK-36388","OBJECT_ID":"2026-040Y","EPOCH":"2026-03-14T22:00:01.999584","MEAN_MOTION":15.93988574,"ECCENTRICITY":0.00011967,"INCLINATION":97.2775,"RA_OF_ASC_NODE":22.5741,"ARG_OF_PERICENTER":86.6502,"MEAN_ANOMALY":311.1761,"EPHEMERIS_TYPE":0,"CLASSIFICATION_TYPE":"U","NORAD_CAT_ID":68037,"ELEMENT_SET_NO":999,"REV_AT_EPOCH":321,"BSTAR":-0.0046248516,"MEAN_MOTION_DOT":-0.01675113,"MEAN_MOTION_DDOT":0.00079890355},{"OBJECT_NAME":"STARLINK-36895","OBJECT_ID":"2026-040Z","EPOCH":"2026-03-14T22:00:01.999584","MEAN_MOTION":15.93852836,"ECCENTRICITY":0.00010994,"INCLINATION":97.2746,"RA_OF_ASC_NODE":22.5668,"ARG_OF_PERICENTER":90.0595,"MEAN_ANOMALY":294.6889,"EPHEMERIS_TYPE":0,"CLASSIFICATION_TYPE":"U","NORAD_CAT_ID":68038,"ELEMENT_SET_NO":999,"REV_AT_EPOCH":326,"BSTAR":-0.0046173979,"MEAN_MOTION_DOT":-0.01660694,"MEAN_MOTION_DDOT":0.00078505879},{"OBJECT_NAME":"STARLINK-36373","OBJECT_ID":"2026-040AA","EPOCH":"2026-03-14T22:00:01.999584","MEAN_MOTION":15.9381951,"ECCENTRICITY":0.00010535,"INCLINATION":97.2745,"RA_OF_ASC_NODE":22.5654,"ARG_OF_PERICENTER":84.7677,"MEAN_ANOMALY":295.3296,"EPHEMERIS_TYPE":0,"CLASSIFICATION_TYPE":"U","NORAD_CAT_ID":68039,"ELEMENT_SET_NO":999,"REV_AT_EPOCH":321,"BSTAR":-0.0046058536,"MEAN_MOTION_DOT":-0.01653725,"MEAN_MOTION_DDOT":0.0007786793},{"OBJECT_NAME":"STARLINK-37022","OBJECT_ID":"2026-044A","EPOCH":"2026-03-14T20:00:01.999872","MEAN_MOTION":16.0018464,"ECCENTRICITY":0.00014007,"INCLINATION":97.2823,"RA_OF_ASC_NODE":34.092,"ARG_OF_PERICENTER":103.7094,"MEAN_ANOMALY":157.512,"EPHEMERIS_TYPE":0,"CLASSIFICATION_TYPE":"U","NORAD_CAT_ID":68101,"ELEMENT_SET_NO":999,"REV_AT_EPOCH":222,"BSTAR":-0.0035640649,"MEAN_MOTION_DOT":-0.01807908,"MEAN_MOTION_DDOT":0.00098604077},{"OBJECT_NAME":"STARLINK-37046","OBJECT_ID":"2026-044B","EPOCH":"2026-03-14T20:00:01.999872","MEAN_MOTION":16.00293324,"ECCENTRICITY":0.00014043,"INCLINATION":97.2824,"RA_OF_ASC_NODE":34.0929,"ARG_OF_PERICENTER":99.6959,"MEAN_ANOMALY":162.9767,"EPHEMERIS_TYPE":0,"CLASSIFICATION_TYPE":"U","NORAD_CAT_ID":68102,"ELEMENT_SET_NO":999,"REV_AT_EPOCH":222,"BSTAR":-0.0035230838,"MEAN_MOTION_DOT":-0.01798272,"MEAN_MOTION_DDOT":0.00097740702},{"OBJECT_NAME":"STARLINK-37018","OBJECT_ID":"2026-044C","EPOCH":"2026-03-14T20:00:01.999872","MEAN_MOTION":16.0043597,"ECCENTRICITY":0.0001408,"INCLINATION":97.2821,"RA_OF_ASC_NODE":34.0938,"ARG_OF_PERICENTER":96.8267,"MEAN_ANOMALY":168.0491,"EPHEMERIS_TYPE":0,"CLASSIFICATION_TYPE":"U","NORAD_CAT_ID":68103,"ELEMENT_SET_NO":999,"REV_AT_EPOCH":217,"BSTAR":-0.0034933104,"MEAN_MOTION_DOT":-0.01797576,"MEAN_MOTION_DDOT":0.00097831662},{"OBJECT_NAME":"STARLINK-37041","OBJECT_ID":"2026-044D","EPOCH":"2026-03-14T20:00:01.999872","MEAN_MOTION":16.00703585,"ECCENTRICITY":0.00013335,"INCLINATION":97.2823,"RA_OF_ASC_NODE":34.0956,"ARG_OF_PERICENTER":100.6813,"MEAN_ANOMALY":168.1046,"EPHEMERIS_TYPE":0,"CLASSIFICATION_TYPE":"U","NORAD_CAT_ID":68104,"ELEMENT_SET_NO":999,"REV_AT_EPOCH":217,"BSTAR":-0.0034385749,"MEAN_MOTION_DOT":-0.01796547,"MEAN_MOTION_DDOT":0.00098031845},{"OBJECT_NAME":"STARLINK-37021","OBJECT_ID":"2026-044E","EPOCH":"2026-03-14T20:00:01.999872","MEAN_MOTION":16.00817004,"ECCENTRICITY":0.00013103,"INCLINATION":97.2818,"RA_OF_ASC_NODE":34.096,"ARG_OF_PERICENTER":93.3142,"MEAN_ANOMALY":177.121,"EPHEMERIS_TYPE":0,"CLASSIFICATION_TYPE":"U","NORAD_CAT_ID":68105,"ELEMENT_SET_NO":999,"REV_AT_EPOCH":217,"BSTAR":-0.0033814893,"MEAN_MOTION_DOT":-0.01778393,"MEAN_MOTION_DDOT":0.00096304},{"OBJECT_NAME":"STARLINK-37024","OBJECT_ID":"2026-044F","EPOCH":"2026-03-14T20:00:01.999872","MEAN_MOTION":16.00942753,"ECCENTRICITY":0.00013404,"INCLINATION":97.2818,"RA_OF_ASC_NODE":34.0967,"ARG_OF_PERICENTER":92.5937,"MEAN_ANOMALY":179.7097,"EPHEMERIS_TYPE":0,"CLASSIFICATION_TYPE":"U","NORAD_CAT_ID":68106,"ELEMENT_SET_NO":999,"REV_AT_EPOCH":217,"BSTAR":-0.0033416121,"MEAN_MOTION_DOT":-0.01770193,"MEAN_MOTION_DDOT":0.00095611342},{"OBJECT_NAME":"STARLINK-37005","OBJECT_ID":"2026-044G","EPOCH":"2026-03-14T20:00:01.999872","MEAN_MOTION":16.00567848,"ECCENTRICITY":0.00013657,"INCLINATION":97.282,"RA_OF_ASC_NODE":34.0943,"ARG_OF_PERICENTER":95.8565,"MEAN_ANOMALY":170.9586,"EPHEMERIS_TYPE":0,"CLASSIFICATION_TYPE":"U","NORAD_CAT_ID":68107,"ELEMENT_SET_NO":999,"REV_AT_EPOCH":217,"BSTAR":-0.0034669544,"MEAN_MOTION_DOT":-0.01797427,"MEAN_MOTION_DDOT":0.00097966924},{"OBJECT_NAME":"STARLINK-37017","OBJECT_ID":"2026-044H","EPOCH":"2026-03-14T20:00:01.999872","MEAN_MOTION":16.01095611,"ECCENTRICITY":0.00012946,"INCLINATION":97.2819,"RA_OF_ASC_NODE":34.0979,"ARG_OF_PERICENTER":93.1761,"MEAN_ANOMALY":181.2543,"EPHEMERIS_TYPE":0,"CLASSIFICATION_TYPE":"U","NORAD_CAT_ID":68108,"ELEMENT_SET_NO":999,"REV_AT_EPOCH":217,"BSTAR":-0.0033571863,"MEAN_MOTION_DOT":-0.01793776,"MEAN_MOTION_DDOT":0.00098198135},{"OBJECT_NAME":"STARLINK-36833","OBJECT_ID":"2026-044J","EPOCH":"2026-03-14T20:00:01.999872","MEAN_MOTION":16.01357428,"ECCENTRICITY":0.00013183,"INCLINATION":97.2812,"RA_OF_ASC_NODE":34.0993,"ARG_OF_PERICENTER":95.3681,"MEAN_ANOMALY":182.9416,"EPHEMERIS_TYPE":0,"CLASSIFICATION_TYPE":"U","NORAD_CAT_ID":68109,"ELEMENT_SET_NO":999,"REV_AT_EPOCH":222,"BSTAR":-0.0032973014,"MEAN_MOTION_DOT":-0.0178851,"MEAN_MOTION_DDOT":0.00097957967},{"OBJECT_NAME":"STARLINK-36830","OBJECT_ID":"2026-044K","EPOCH":"2026-03-14T20:00:01.999872","MEAN_MOTION":16.01229232,"ECCENTRICITY":0.00013728,"INCLINATION":97.2814,"RA_OF_ASC_NODE":34.0985,"ARG_OF_PERICENTER":100.5612,"MEAN_ANOMALY":176.0373,"EPHEMERIS_TYPE":0,"CLASSIFICATION_TYPE":"U","NORAD_CAT_ID":68110,"ELEMENT_SET_NO":999,"REV_AT_EPOCH":222,"BSTAR":-0.0033080227,"MEAN_MOTION_DOT":-0.01781265,"MEAN_MOTION_DDOT":0.00097065127}]
